ISS (ZARYA)             
1 25544U 98067A   26072.38526547  .00010392  00000+0  19895-3 0  9996
2 25544  51.6324  54.0842 0007909 188.2233 171.8627 15.48625615556908
POISK                   
1 36086U 09060A   26072.38526547  .00010392  00000+0  19895-3 0  9994
2 36086  51.6324  54.0842 0007909 188.2233 171.8627 15.48625615554448
CSS (TIANHE)            
1 48274U 21035A   26072.55482282  .00030215  00000+0  35350-3 0  9998
2 48274  41.4662 184.6407 0006739 297.0069  63.0081 15.60878289278210
ISS (NAUKA)             
1 49044U 21066A   26072.38526547  .00010392  00000+0  19895-3 0  9992
2 49044  51.6324  54.0842 0007909 188.2233 171.8627 15.48625615554457
FREGAT DEB              
1 49271U 11037PF  26071.98788539  .00019193  00000+0  27403-1 0  9997
2 49271  51.6525 290.8604 0961558  66.9712 302.9578 12.40314724213102
CSS (WENTIAN)           
1 53239U 22085A   26072.55482282  .00030215  00000+0  35350-3 0  9991
2 53239  41.4662 184.6407 0006739 297.0069  63.0081 15.60878289275618
CSS (MENGTIAN)          
1 54216U 22143A   26072.55482282  .00030215  00000+0  35350-3 0  9992
2 54216  41.4662 184.6407 0006739 297.0069  63.0081 15.60878289275580
PROGRESS-MS 31          
1 64751U 25146A   26072.38526547  .00010392  00000+0  19895-3 0  9997
2 64751  51.6324  54.0842 0007909 188.2233 171.8627 15.48625615554460
TIANZHOU-9              
1 64786U 25149A   26072.55482282  .00030215  00000+0  35350-3 0  9994
2 64786  41.4662 184.6407 0006739 297.0069  63.0081 15.60878289275594
PROGRESS-MS 32          
1 65586U 25204A   26072.38526547  .00010392  00000+0  19895-3 0  9999
2 65586  51.6324  54.0842 0007909 188.2233 171.8627 15.48625615554502
CYGNUS NG-23            
1 65616U 25208A   26072.57834176  .00006866  00000+0  12832-3 0  9993
2 65616  51.6322  53.1239 0007618 189.5476 170.5369 15.49954474   193
YOTSUBA-KULOVER         
1 65941U 98067XN  26072.30764432  .00245250  00000+0  11334-2 0  9992
2 65941  51.6207  38.5032 0005145  94.5757 265.5833 15.82254050 24078
E-KAGAKU-1              
1 65943U 98067XQ  26072.31297397  .00236005  00000+0  11129-2 0  9996
2 65943  51.6233  38.5579 0005696  99.5179 260.6467 15.81842071 24073
HRC MONOBLOCK CAMERA    
1 66052U 98067XR  26072.28215557  .00055964  00000+0  61502-3 0  9996
2 66052  51.6278  47.3965 0003816 109.8372 250.3034 15.62620622 22959
HTV-X1                  
1 66174U 25241A   26072.42552678  .00014595  00000+0  62687-3 0  9999
2 66174  51.6353  55.0787 0005760 183.8769 176.2164 15.22885644 21523
SZ-21 MODULE            
1 66515U 25246C   26072.57488950  .00042463  00000+0  36005-3 0  9990
2 66515  41.4731 179.4377 0001010 309.0341  51.0410 15.68874146 18689
